{
    "links": {
        "self": "http://www.neowsapp.com/rest/v1/neo/3841950?api_key=iIulBulltgU6a56xZRHN4H3l9WmuAYTsLGpBGhQ2"
    },
    "id": "3841950",
    "neo_reference_id": "3841950",
    "name": "(2019 JV7)",
    "designation": "2019 JV7",
    "nasa_jpl_url": "http://ssd.jpl.nasa.gov/sbdb.cgi?sstr=3841950",
    "absolute_magnitude_h": 26.3,
    "estimated_diameter": {
        "kilometers": {
            "estimated_diameter_min": 0.0146067964,
            "estimated_diameter_max": 0.0326617897
        },
        "meters": {
            "estimated_diameter_min": 14.6067964271,
            "estimated_diameter_max": 32.6617897446
        },
        "miles": {
            "estimated_diameter_min": 0.0090762397,
            "estimated_diameter_max": 0.020295089
        },
        "feet": {
            "estimated_diameter_min": 47.92256199,
            "estimated_diameter_max": 107.1581062656
        }
    },
    "is_potentially_hazardous_asteroid": false,
    "close_approach_data": [
        {
            "close_approach_date": "2019-05-12",
            "close_approach_date_full": "2019-May-12 13:10",
            "epoch_date_close_approach": 1557666600000,
            "relative_velocity": {
                "kilometers_per_second": "9.0715021275",
                "kilometers_per_hour": "32657.4076589578",
                "miles_per_hour": "20292.0431089785"
            },
            "miss_distance": {
                "astronomical": "0.0195036992",
                "lunar": "7.5869389888",
                "kilometers": "2917711.857440704",
                "miles": "1812982.0791175552"
            },
            "orbiting_body": "Earth"
        }
    ],
    "orbital_data": {
        "orbit_id": "1",
        "orbit_determination_date": "2019-05-24 09:42:11",
        "first_observation_date": "2019-05-13",
        "last_observation_date": "2019-05-15",
        "data_arc_in_days": 2,
        "observations_used": 9,
        "orbit_uncertainty": "8",
        "minimum_orbit_intersection": ".0188873",
        "jupiter_tisserand_invariant": "3.198",
        "epoch_osculation": "2458617.5",
        "eccentricity": ".5924230262766992",
        "semi_major_axis": "2.48537538745434",
        "inclination": "7.499712951678526",
        "ascending_node_longitude": "57.12374460166281",
        "orbital_period": "1431.154158082671",
        "perihelion_distance": "1.012981778985016",
        "perihelion_argument": "160.3434865627717",
        "aphelion_distance": "3.957768995923663",
        "perihelion_time": "2458604.541798354605",
        "mean_anomaly": "3.259573796432857",
        "mean_motion": ".2515452287000969",
        "equinox": "J2000",
        "orbit_class": {
            "orbit_class_type": "APO",
            "orbit_class_description": "Near-Earth asteroid orbits which cross the Earth’s orbit similar to that of 1862 Apollo",
            "orbit_class_range": "a (semi-major axis) > 1.0 AU; q (perihelion) < 1.017 AU"
        }
    },
    "is_sentry_object": false
}